NORAD_CAT_ID,OBJECT_NAME,OBJECT_TYPE,EPOCH,MEAN_MOTION,ECCENTRICITY,INCLINATION,RA_OF_ASC_NODE,ARG_OF_PERICENTER,MEAN_ANOMALY,BSTAR,MEAN_MOTION_DOT,MEAN_MOTION_DDOT,TLE_LINE0,TLE_LINE1,TLE_LINE2,SEMIMAJOR_AXIS,PERIOD,APOGEE,PERIGEE,DECAYED
53280.0,STARLINK-4169,PAYLOAD,2022-10-10 22:00:01,15.69537455,0.0003521,53.2171,15.8667,5.6354,43.2714,-0.0026991,-0.00313458,0.0,0 STARLINK-4169,1 53280U 22086AQ  22283.91668981 -.00313458  00000-0 -26991-2 0  9996,2 53280  53.2171  15.8667 0003521   5.6354  43.2714 15.69537455 12965,6738.358,91.747,362.595,357.85,0.0
53280.0,STARLINK-4169,PAYLOAD,2022-10-11 06:00:00,15.69422556,0.0003369,53.2168,14.2217,6.3068,126.9532,0.00069726,0.00083744,0.0,0 STARLINK-4169,1 53280U 22086AQ  22284.25001157  .00083744  00000-0  69726-3 0  9994,2 53280  53.2168  14.2217 0003369   6.3068 126.9532 15.69422556 13014,6738.686,91.753,362.822,358.281,0.0
53280.0,STARLINK-4169,PAYLOAD,2022-10-11 14:00:01,15.69430972,0.0003437,53.2175,12.5898,9.2634,208.3798,0.00077148,0.00092856,0.0,0 STARLINK-4169,1 53280U 22086AQ  22284.58334491  .00092856  00000-0  77148-3 0  9991,2 53280  53.2175  12.5898 0003437   9.2634 208.3798 15.69430972 13060,6738.6619999999975,91.753,362.843,358.211,0.0
53280.0,STARLINK-4169,PAYLOAD,2022-10-11 22:00:00,15.6948883,0.0003402,53.2174,10.9494,8.0546,294.0301,-2.5009e-05,-3.592e-05,0.0,0 STARLINK-4169,1 53280U 22086AQ  22284.91667824 -.00003592  00000-0 -25009-4 0  9998,2 53280  53.2174  10.9494 0003402   8.0546 294.0301 15.69488830  1306,6738.496999999999,91.75,362.654,358.069,0.0
53280.0,STARLINK-4169,PAYLOAD,2022-10-12 06:00:00,15.69464384,0.0003614,53.2172,9.2997,7.8076,18.7236,-0.00027092,-0.0003296,0.0,0 STARLINK-4169,1 53280U 22086AQ  22285.25001157 -.00032960  00000-0 -27092-3 0  9991,2 53280  53.2172   9.2997 0003614   7.8076  18.7236 15.69464384 13177,6738.566999999999,91.751,362.867,357.996,0.0
53280.0,STARLINK-4169,PAYLOAD,2022-10-12 14:00:01,15.69284209,0.0003649,53.2175,7.6655,8.37,102.6124,0.0038661,0.00487698,0.0,0 STARLINK-4169,1 53280U 22086AQ  22285.58334491  .00487698  00000-0  38661-2 0  9990,2 53280  53.2175   7.6655 0003649   8.3700 102.6124 15.69284209  1308,6739.081999999999,91.762,363.407,358.48800000000006,0.0
53280.0,STARLINK-4169,PAYLOAD,2022-10-12 22:00:00,15.6969851,0.0003324,53.2174,6.0265,8.4935,186.8872,-0.002706,-0.00316244,0.0,0 STARLINK-4169,1 53280U 22086AQ  22285.91667824 -.00316244  00000-0 -27060-2 0  9997,2 53280  53.2174   6.0265 0003324   8.4935 186.8872 15.69698510  1306,6737.897,91.737,362.001,357.522,0.0
53280.0,STARLINK-4169,PAYLOAD,2022-10-13 06:00:00,15.69386841,0.0003836999999999,53.2171,4.3811,9.9345,269.8191,0.002752,0.00342343,0.0,0 STARLINK-4169,1 53280U 22086AQ  22286.25001157  .00342343  00000-0  27520-2 0  9994,2 53280  53.2171   4.3811 0003837   9.9345 269.8191 15.69386841 13323,6738.7890000000025,91.756,363.239,358.0680000000001,0.0
53280.0,STARLINK-4169,PAYLOAD,2022-10-13 14:00:01,15.69888186,0.0003916,53.2175,2.7469,3.5147,0.66,-0.0045075,-0.00518194,0.0,0 STARLINK-4169,1 53280U 22086AQ  22286.58334491 -.00518194  00000-0 -45075-2 0  9996,2 53280  53.2175   2.7469 0003916   3.5147   0.6600 15.69888186  1306,6737.354,91.726,361.857,356.581,0.0
53280.0,STARLINK-4169,PAYLOAD,2022-10-13 20:00:01,15.69485615,0.0003805,53.2171,1.5171,1.3628,336.48,1.7756e-05,1.541e-05,0.0,0 STARLINK-4169,1 53280U 22086AQ  22286.83335648  .00001541  00000-0  17756-4 0  9997,2 53280  53.2171   1.5171 0003805   1.3628 336.4800 15.69485615 13413,6738.505999999999,91.75,362.935,357.807,0.0
53280.0,STARLINK-4169,PAYLOAD,2022-10-13 22:00:00,15.69487675,0.0003821,53.2174,1.1063,1.5614,87.3321,-3.0995e-06,-9.63e-06,0.0,0 STARLINK-4169,1 53280U 22086AQ  22286.91667824 -.00000963  00000-0 -30995-5 0  9990,2 53280  53.2174   1.1063 0003821   1.5614  87.3321 15.69487675  1300,6738.5,91.75,362.94,357.79,0.0
53280.0,STARLINK-4169,PAYLOAD,2022-10-14 14:00:01,15.69432467,0.0004208,53.2176,357.8252,5.8605,251.9988,0.00069213,0.00083164,0.0,0 STARLINK-4169,1 53280U 22086AQ  22287.58334491  .00083164  00000-0  69213-3 0  9990,2 53280  53.2176 357.8252 0004208   5.8605 251.9988 15.69432467  1307,6738.658,91.753,363.359,357.68699999999984,0.0
53280.0,STARLINK-4169,PAYLOAD,2022-10-14 22:00:00,15.69488868,0.0004144,53.2176,356.1847,3.8736,338.4238,-2.6209e-05,-3.737e-05,0.0,0 STARLINK-4169,1 53280U 22086AQ  22287.91667824 -.00003737  00000-0 -26209-4 0  9995,2 53280  53.2176 356.1847 0004144   3.8736 338.4238 15.69488868  1306,6738.496999999999,91.75,363.154,357.569,0.0
53280.0,STARLINK-4169,PAYLOAD,2022-10-15 14:00:01,15.69508189,0.0003843,53.2171,352.9027,349.5103,161.7794,-0.0046856,-0.00529461,0.0,0 STARLINK-4169,1 53280U 22086AQ  22288.58334491 -.00529461  00000-0 -46856-2 0  9995,2 53280  53.2171 352.9027 0003843 349.5103 161.7794 15.69508189 13696,6738.441,91.748,362.896,357.717,0.0
53280.0,STARLINK-4169,PAYLOAD,2022-10-15 22:00:01,15.692257500000002,0.0003695,53.2174,351.2633,307.8056,287.8047,-0.0086626,-0.00936685,0.0,0 STARLINK-4169,1 53280U 22086AQ  22288.91668981 -.00936685  00000-0 -86626-2 0  9995,2 53280  53.2174 351.2633 0003695 307.8056 287.8047 15.69225750  1309,6739.25,91.765,363.605,358.625,0.0
53280.0,STARLINK-4169,PAYLOAD,2022-10-16 14:00:01,15.67902429,0.0007217,53.2175,347.9888,274.7458,127.4979,-0.0087729,-0.00889626,0.0,0 STARLINK-4169,1 53280U 22086AQ  22289.58334491 -.00889626  00000-0 -87729-2 0  9992,2 53280  53.2175 347.9888 0007217 274.7458 127.4979 15.67902429  1302,6743.041,91.842,369.773,360.04,0.0
53280.0,STARLINK-4169,PAYLOAD,2022-10-16 22:00:00,15.67266584,0.0006825,53.2176,346.3511,270.3674,214.0442,-0.009283,-0.00928184,0.0,0 STARLINK-4169,1 53280U 22086AQ  22289.91667824 -.00928184  00000-0 -92830-2 0  9990,2 53280  53.2176 346.3511 0006825 270.3674 214.0442 15.67266584  1308,6744.865,91.88,371.333,362.127,0.0
53280.0,STARLINK-4169,PAYLOAD,2022-10-17 06:00:00,15.66606498,0.0004342,53.2178,344.717,269.1521,296.6528,-0.0093752999999999,-0.00912649,0.0,0 STARLINK-4169,1 53280U 22086AQ  22290.25001157 -.00912649  00000-0 -93753-2 0  9994,2 53280  53.2178 344.7170 0004342 269.1521 296.6528 15.66606498 13958,6746.759,91.918,371.554,365.695,0.0
53280.0,STARLINK-4169,PAYLOAD,2022-10-17 14:00:01,15.65941678,0.0002593999999999,53.2175,343.086,269.9102,16.506,-0.0093463,-0.00887265,0.0,0 STARLINK-4169,1 53280U 22086AQ  22290.58334491 -.00887265  00000-0 -93463-2 0  9993,2 53280  53.2175 343.0860 0002594 269.9102  16.5060 15.65941678  1300,6748.669,91.957,372.284,368.783,0.0
53280.0,STARLINK-4169,PAYLOAD,2022-10-17 22:00:00,15.65300364,5.28e-05,53.2174,341.4530000000001,265.3227,100.917,-0.009778,-0.00902463,0.0,0 STARLINK-4169,1 53280U 22086AQ  22290.91667824 -.00902463  00000-0 -97780-2 0  9993,2 53280  53.2174 341.4530 0000528 265.3227 100.9170 15.65300364  1309,6750.512,91.995,372.733,372.021,0.0
53280.0,STARLINK-4169,PAYLOAD,2022-10-18 14:00:01,15.63997375,0.0001304,53.2174,338.1976,60.0088,103.5339,-0.010288,-0.0090158,0.0,0 STARLINK-4169,1 53280U 22086AQ  22291.58334491 -.00901580  00000-0 -10288-1 0  9994,2 53280  53.2174 338.1976 0001304  60.0088 103.5339 15.63997375 14160,6754.261,92.072,377.007,375.245,0.0
53280.0,STARLINK-4169,PAYLOAD,2022-10-18 22:00:00,15.63349659,0.000117,53.2175,336.5691,70.8629,170.1588,-0.01063,-0.00907313,0.0,0 STARLINK-4169,1 53280U 22086AQ  22291.91667824 -.00907313  00000-0 -10630-1 0  9991,2 53280  53.2175 336.5691 0001170  70.8629 170.1588 15.63349659  1302,6756.126,92.11,378.782,377.201,0.0
53280.0,STARLINK-4169,PAYLOAD,2022-10-19 06:00:00,15.62711145,0.000107,53.2173,334.944,68.2399,249.4723,-0.011128,-0.00924452,0.0,0 STARLINK-4169,1 53280U 22086AQ  22292.25001157 -.00924452  00000-0 -11128-1 0  9996,2 53280  53.2173 334.9440 0001070  68.2399 249.4723 15.62711145 14260,6757.967,92.148,380.555,379.108,0.0
53280.0,STARLINK-4169,PAYLOAD,2022-10-19 14:00:01,15.62047521,0.0001169,53.2174,333.3232,56.1381,337.4924,-0.011172,-0.00906038,0.0,0 STARLINK-4169,1 53280U 22086AQ  22292.58334491 -.00906038  00000-0 -11172-1 0  9991,2 53280  53.2174 333.3232 0001169  56.1381 337.4924 15.62047521  1301,6759.88,92.187,382.536,380.955,0.0
53280.0,STARLINK-4169,PAYLOAD,2022-10-19 22:00:00,15.6139633,0.0001119,53.2176,331.6997,73.5627,35.2011,-0.011458,-0.00905895,0.0,0 STARLINK-4169,1 53280U 22086AQ  22292.91667824 -.00905895  00000-0 -11458-1 0  9994,2 53280  53.2176 331.6997 0001119  73.5627  35.2011 15.61396330  1307,6761.76,92.225,384.381,382.86800000000005,0.0
53280.0,STARLINK-4169,PAYLOAD,2022-10-20 14:00:01,15.60093438,0.0001229,53.2173,328.4631,64.7212,191.9581,-0.0120159999999999,-0.00903503,0.0,0 STARLINK-4169,1 53280U 22086AQ  22293.58334491 -.00903503  00000-0 -12016-1 0  9994,2 53280  53.2173 328.4631 0001229  64.7212 191.9581 15.60093438  1301,6765.524,92.302,388.22,386.557,0.0
53280.0,STARLINK-4169,PAYLOAD,2022-10-20 22:00:00,15.5944324,0.0001097,53.2173,326.8443,65.1207,264.3448,-0.012353,-0.00905666,0.0,0 STARLINK-4169,1 53280U 22086AQ  22293.91667824 -.00905666  00000-0 -12353-1 0  9996,2 53280  53.2173 326.8443 0001097  65.1207 264.3448 15.59443240  1301,6767.404,92.341,390.012,388.527,0.0
53280.0,STARLINK-4169,PAYLOAD,2022-10-21 14:00:01,15.581414,0.000132,53.2173,323.6172,53.754,58.933,-0.012969,-0.00904901,0.0,0 STARLINK-4169,1 53280U 22086AQ  22294.58334491 -.00904901  00000-0 -12969-1 0  9995,2 53280  53.2173 323.6172 0001320  53.7540  58.9330 15.58141400 14636,6771.1730000000025,92.418,393.932,392.145,0.0
53280.0,STARLINK-4169,PAYLOAD,2022-10-21 22:00:00,15.57489861,0.0001344,53.2174,322.003,57.0568,126.0697,-0.01328,-0.00904113,0.0,0 STARLINK-4169,1 53280U 22086AQ  22294.91667824 -.00904113  00000-0 -13280-1 0  9993,2 53280  53.2174 322.0030 0001344  57.0568 126.0697 15.57489861  1304,6773.062,92.456,395.837,394.016,0.0
